{"type": "FeatureCollection", "features": [ {"type": "Feature", "properties": {"norad_id": 38722, "name": "FENGYUN 1C DEB", "group": "fengyun-1c-debris", "lat": 45.14699509809896, "lon": -75.92961423133339, "alt_km": 647.8986595072674, "timestamp": "2025-12-21T03:56:51.124808+00:00", "meta": {"OBJECT_NAME": "FENGYUN 1C DEB", "OBJECT_ID": "1999-025ETP", "EPOCH": "2025-12-17T02:12:43.977024", "MEAN_MOTION": 14.58521186, "ECCENTRICITY": 0.0146561, "INCLINATION": 99.3535, "RA_OF_ASC_NODE": 89.9539, "ARG_OF_PERICENTER": 81.7471, "MEAN_ANOMALY": 280.0316, "EPHEMERIS_TYPE": 0, "CLASSIFICATION_TYPE": "U", "NORAD_CAT_ID": 38722, "ELEMENT_SET_NO": 999, "REV_AT_EPOCH": 70527, "BSTAR": 0.0018586815, "MEAN_MOTION_DOT": 9.973e-05, "MEAN_MOTION_DDOT": 0}, "tle": {"line1": "1 38722U 99025ETP 25351.09217566  .00009973  00000+0  18587-2 0  9997", "line2": "2 38722  99.3535  89.9539 0146561  81.7471 280.0316 14.58521186705274"}}, "geometry": {"type": "Point", "coordinates": [-75.92961423133339, 45.14699509809896]}}, {"type": "Feature", "properties": {"norad_id": 38725, "name": "FENGYUN 1C DEB", "group": "fengyun-1c-debris", "lat": -64.90524211453913, "lon": -78.7488928517459, "alt_km": 731.6896799055048, "timestamp": "2025-12-21T03:56:51.124817+00:00", "meta": {"OBJECT_NAME": "FENGYUN 1C DEB", "OBJECT_ID": "1999-025ETS", "EPOCH": "2025-12-17T07:16:31.480896", "MEAN_MOTION": 14.42909835, "ECCENTRICITY": 0.00350733, "INCLINATION": 98.8709, "RA_OF_ASC_NODE": 116.7145, "ARG_OF_PERICENTER": 243.5094, "MEAN_ANOMALY": 116.2496, "EPHEMERIS_TYPE": 0, "CLASSIFICATION_TYPE": "U", "NORAD_CAT_ID": 38725, "ELEMENT_SET_NO": 999, "REV_AT_EPOCH": 73418, "BSTAR": 0.0021269674, "MEAN_MOTION_DOT": 7.121e-05, "MEAN_MOTION_DDOT": 0}, "tle": {"line1": "1 38725U 99025ETS 25351.30314214  .00007121  00000+0  21270-2 0  9998", "line2": "2 38725  98.8709 116.7145 0035073 243.5094 116.2496 14.42909835734185"}}, "geometry": {"type": "Point", "coordinates": [-78.7488928517459, -64.90524211453913]}}, {"type": "Feature", "properties": {"norad_id": 38726, "name": "FENGYUN 1C DEB", "group": "fengyun-1c-debris", "lat": -76.60974399789895, "lon": 158.20836677842243, "alt_km": 575.9334812391353, "timestamp": "2025-12-21T03:56:51.124826+00:00", "meta": {"OBJECT_NAME": "FENGYUN 1C DEB", "OBJECT_ID": "1999-025ETT", "EPOCH": "2025-12-18T07:44:42.644256", "MEAN_MOTION": 15.04018095, "ECCENTRICITY": 0.00236822, "INCLINATION": 99.1359, "RA_OF_ASC_NODE": 17.3874, "ARG_OF_PERICENTER": 108.0917, "MEAN_ANOMALY": 252.2886, "EPHEMERIS_TYPE": 0, "CLASSIFICATION_TYPE": "U", "NORAD_CAT_ID": 38726, "ELEMENT_SET_NO": 999, "REV_AT_EPOCH": 69939, "BSTAR": 0.0056393313, "MEAN_MOTION_DOT": 0.00079186, "MEAN_MOTION_DDOT": 0}, "tle": {"line1": "1 38726U 99025ETT 25352.32271579  .00079186  00000+0  56393-2 0  9992", "line2": "2 38726  99.1359  17.3874 0023682 108.0917 252.2886 15.04018095699393"}}, "geometry": {"type": "Point", "coordinates": [158.20836677842243, -76.60974399789895]}}, {"type": "Feature", "properties": {"norad_id": 38728, "name": "FENGYUN 1C DEB", "group": "fengyun-1c-debris", "lat": -69.59482392894196, "lon": 137.63238196713007, "alt_km": 704.7607162945524, "timestamp": "2025-12-21T03:56:51.124835+00:00", "meta": {"OBJECT_NAME": "FENGYUN 1C DEB", "OBJECT_ID": "1999-025ETV", "EPOCH": "2025-12-18T04:52:33.180384", "MEAN_MOTION": 14.70670861, "ECCENTRICITY": 0.00750743, "INCLINATION": 99.2585, "RA_OF_ASC_NODE": 340.2802, "ARG_OF_PERICENTER": 38.2663, "MEAN_ANOMALY": 24.4324, "EPHEMERIS_TYPE": 0, "CLASSIFICATION_TYPE": "U", "NORAD_CAT_ID": 38728, "ELEMENT_SET_NO": 999, "REV_AT_EPOCH": 65691, "BSTAR": 0.0011739041, "MEAN_MOTION_DOT": 7.408e-05, "MEAN_MOTION_DDOT": 0}, "tle": {"line1": "1 38728U 99025ETV 25352.20316181  .00007408  00000+0  11739-2 0  9993", "line2": "2 38728  99.2585 340.2802 0075074  38.2663  24.4324 14.70670861656914"}}, "geometry": {"type": "Point", "coordinates": [137.63238196713007, -69.59482392894196]}}, {"type": "Feature", "properties": {"norad_id": 38789, "name": "FENGYUN 1C DEB", "group": "fengyun-1c-debris", "lat": 15.319266842176065, "lon": 64.06403660718789, "alt_km": 881.9172567481182, "timestamp": "2025-12-21T03:56:51.124844+00:00", "meta": {"OBJECT_NAME": "FENGYUN 1C DEB", "OBJECT_ID": "1999-025EUD", "EPOCH": "2025-12-16T11:04:27.892416", "MEAN_MOTION": 14.45831603, "ECCENTRICITY": 0.02075268, "INCLINATION": 98.8566, "RA_OF_ASC_NODE": 236.7044, "ARG_OF_PERICENTER": 14.1855, "MEAN_ANOMALY": 164.1034, "EPHEMERIS_TYPE": 0, "CLASSIFICATION_TYPE": "U", "NORAD_CAT_ID": 38789, "ELEMENT_SET_NO": 999, "REV_AT_EPOCH": 61899, "BSTAR": 0.00050950207, "MEAN_MOTION_DOT": 2.303e-05, "MEAN_MOTION_DDOT": 0}, "tle": {"line1": "1 38789U 99025EUD 25350.46143394  .00002303  00000+0  50950-3 0  9998", "line2": "2 38789  98.8566 236.7044 0207526  14.1855 164.1034 14.45831603618998"}}, "geometry": {"type": "Point", "coordinates": [64.06403660718789, 15.319266842176065]}}, {"type": "Feature", "properties": {"norad_id": 38795, "name": "FENGYUN 1C DEB", "group": "fengyun-1c-debris", "lat": 23.932693747559853, "lon": 12.938636055567155, "alt_km": 1466.9095613706713, "timestamp": "2025-12-21T03:56:51.124852+00:00", "meta": {"OBJECT_NAME": "FENGYUN 1C DEB", "OBJECT_ID": "1999-025EUK", "EPOCH": "2025-12-19T08:28:58.853280", "MEAN_MOTION": 13.29929799, "ECCENTRICITY": 0.050261, "INCLINATION": 98.6991, "RA_OF_ASC_NODE": 15.2992, "ARG_OF_PERICENTER": 239.3725, "MEAN_ANOMALY": 115.6931, "EPHEMERIS_TYPE": 0, "CLASSIFICATION_TYPE": "U", "NORAD_CAT_ID": 38795, "ELEMENT_SET_NO": 999, "REV_AT_EPOCH": 78600, "BSTAR": 0.0020267, "MEAN_MOTION_DOT": 1.866e-05, "MEAN_MOTION_DDOT": 0}, "tle": {"line1": "1 38795U 99025EUK 25353.35345895  .00001866  00000+0  20267-2 0  9996", "line2": "2 38795  98.6991  15.2992 0502610 239.3725 115.6931 13.29929799786006"}}, "geometry": {"type": "Point", "coordinates": [12.938636055567155, 23.932693747559853]}}, {"type": "Feature", "properties": {"norad_id": 38797, "name": "FENGYUN 1C DEB", "group": "fengyun-1c-debris", "lat": 71.80970071257983, "lon": -142.79428426710416, "alt_km": 1124.7433612356335, "timestamp": "2025-12-21T03:56:51.124861+00:00", "meta": {"OBJECT_NAME": "FENGYUN 1C DEB", "OBJECT_ID": "1999-025EUM", "EPOCH": "2025-12-19T11:00:18.573984", "MEAN_MOTION": 13.61613226, "ECCENTRICITY": 0.0244911, "INCLINATION": 99.4844, "RA_OF_ASC_NODE": 246.126, "ARG_OF_PERICENTER": 204.101, "MEAN_ANOMALY": 154.8513, "EPHEMERIS_TYPE": 0, "CLASSIFICATION_TYPE": "U", "NORAD_CAT_ID": 38797, "ELEMENT_SET_NO": 999, "REV_AT_EPOCH": 59374, "BSTAR": 0.00016885, "MEAN_MOTION_DOT": 1.14e-06, "MEAN_MOTION_DDOT": 0}, "tle": {"line1": "1 38797U 99025EUM 25353.45854831  .00000114  00000+0  16885-3 0  9991", "line2": "2 38797  99.4844 246.1260 0244911 204.1010 154.8513 13.61613226593740"}}, "geometry": {"type": "Point", "coordinates": [-142.79428426710416, 71.80970071257983]}}, {"type": "Feature", "properties": {"norad_id": 38799, "name": "FENGYUN 1C DEB", "group": "fengyun-1c-debris", "lat": -23.64908319183478, "lon": -113.12471150841672, "alt_km": 793.0956703430375, "timestamp": "2025-12-21T03:56:51.124870+00:00", "meta": {"OBJECT_NAME": "FENGYUN 1C DEB", "OBJECT_ID": "1999-025EUP", "EPOCH": "2025-12-17T22:45:09.703872", "MEAN_MOTION": 14.48783843, "ECCENTRICITY": 0.01634283, "INCLINATION": 98.4059, "RA_OF_ASC_NODE": 67.3844, "ARG_OF_PERICENTER": 334.4042, "MEAN_ANOMALY": 24.9125, "EPHEMERIS_TYPE": 0, "CLASSIFICATION_TYPE": "U", "NORAD_CAT_ID": 38799, "ELEMENT_SET_NO": 999, "REV_AT_EPOCH": 64114, "BSTAR": 0.00068941476, "MEAN_MOTION_DOT": 3.031e-05, "MEAN_MOTION_DDOT": 0}, "tle": {"line1": "1 38799U 99025EUP 25351.94802898  .00003031  00000+0  68941-3 0  9992", "line2": "2 38799  98.4059  67.3844 0163428 334.4042  24.9125 14.48783843641148"}}, "geometry": {"type": "Point", "coordinates": [-113.12471150841672, -23.64908319183478]}}, {"type": "Feature", "properties": {"norad_id": 38801, "name": "FENGYUN 1C DEB", "group": "fengyun-1c-debris", "lat": 60.82485262952265, "lon": -119.2845625332975, "alt_km": 1018.4789351741692, "timestamp": "2025-12-21T03:56:51.124879+00:00", "meta": {"OBJECT_NAME": "FENGYUN 1C DEB", "OBJECT_ID": "1999-025EUR", "EPOCH": "2025-12-14T23:38:20.156064", "MEAN_MOTION": 14.2482334, "ECCENTRICITY": 0.03468339, "INCLINATION": 98.3742, "RA_OF_ASC_NODE": 39.5088, "ARG_OF_PERICENTER": 345.3815, "MEAN_ANOMALY": 131.5103, "EPHEMERIS_TYPE": 0, "CLASSIFICATION_TYPE": "U", "NORAD_CAT_ID": 38801, "ELEMENT_SET_NO": 999, "REV_AT_EPOCH": 64392, "BSTAR": 0.00040763026, "MEAN_MOTION_DOT": 1.732e-05, "MEAN_MOTION_DDOT": 0}, "tle": {"line1": "1 38801U 99025EUR 25348.98495551  .00001732  00000+0  40763-3 0  9998", "line2": "2 38801  98.3742  39.5088 0346833 345.3815 131.5103 14.24823340643923"}}, "geometry": {"type": "Point", "coordinates": [-119.2845625332975, 60.82485262952265]}}, {"type": "Feature", "properties": {"norad_id": 38803, "name": "FENGYUN 1C DEB", "group": "fengyun-1c-debris", "lat": -47.517874259869636, "lon": 9.459004510023455, "alt_km": 796.3568220943698, "timestamp": "2025-12-21T03:56:51.124888+00:00", "meta": {"OBJECT_NAME": "FENGYUN 1C DEB", "OBJECT_ID": "1999-025EUT", "EPOCH": "2025-12-11T23:13:14.211840", "MEAN_MOTION": 14.23655987, "ECCENTRICITY": 0.006424, "INCLINATION": 99.1403, "RA_OF_ASC_NODE": 349.7804, "ARG_OF_PERICENTER": 38.5359, "MEAN_ANOMALY": 322.0379, "EPHEMERIS_TYPE": 0, "CLASSIFICATION_TYPE": "U", "NORAD_CAT_ID": 38803, "ELEMENT_SET_NO": 999, "REV_AT_EPOCH": 60201, "BSTAR": 0.003165, "MEAN_MOTION_DOT": 7.334e-05, "MEAN_MOTION_DDOT": 0}, "tle": {"line1": "1 38803U 99025EUT 25345.96752560  .00007334  00000+0  31650-2 0  9999", "line2": "2 38803  99.1403 349.7804 0064240  38.5359 322.0379 14.23655987602019"}}, "geometry": {"type": "Point", "coordinates": [9.459004510023455, -47.517874259869636]}}]}